IRIDIUM 116             
1 43072U 17083C   24029.75971052  .00000182  00000+0  57857-4 0  9994
2 43072  86.4000 325.3777 0002223  88.0462 272.0988 14.34217556319554
IRIDIUM 130             
1 43073U 17083D   24029.30938848  .00000030  00000+0  35520-5 0  9998
2 43073  86.4011 325.7570 0001966  86.6540 273.4880 14.34217631319433
IRIDIUM 151             
1 43074U 17083E   24029.77239770  .00000506  00000+0  17362-3 0  9998
2 43074  86.4002 325.4104 0002463  84.1516 275.9961 14.34219303319528
IRIDIUM 134             
1 43075U 17083F   24029.32207193  .00000147  00000+0  45566-4 0  9993
2 43075  86.4004 325.5949 0001928  86.5948 273.5469 14.34217620319425
IRIDIUM 137             
1 43076U 17083G   24029.33475197  .00000531  00000+0  18256-3 0  9998
2 43076  86.4005 325.6649 0002363  93.6595 266.4871 14.34222781319495
IRIDIUM 141             
1 43077U 17083H   24029.74702464  .00000308  00000+0  10279-3 0  9993
2 43077  86.3999 325.3728 0002149  80.2425 279.9013 14.34217046319550
IRIDIUM 153             
1 43078U 17083J   24029.28059512  .00000233  00000+0  76296-4 0  9991
2 43078  86.3974 294.0188 0002304  76.3179 283.8273 14.34217947320599
IRIDIUM 131             
1 43079U 17083K   24029.31573022  .00000089  00000+0  24677-4 0  9998
2 43079  86.4007 325.6807 0002154  84.8061 275.3380 14.34217422319427
